[{"OBJECT_NAME":"SALSAT","OBJECT_ID":"2020-068K","EPOCH":"2026-03-09T22:26:21.804576","MEAN_MOTION":15.28191989,"ECCENTRICITY":0.00082652,"INCLINATION":97.8859,"RA_OF_ASC_NODE":66.0795,"ARG_OF_PERICENTER":295.8051,"MEAN_ANOMALY":64.2334,"EPHEMERIS_TYPE":0,"CLASSIFICATION_TYPE":"U","NORAD_CAT_ID":46495,"ELEMENT_SET_NO":999,"REV_AT_EPOCH":30019,"BSTAR":0.00040842582,"MEAN_MOTION_DOT":0.00011156,"MEAN_MOTION_DDOT":0},{"OBJECT_NAME":"STARLINK-36451","OBJECT_ID":"2026-003F","EPOCH":"2026-03-08T12:26:34.874880","MEAN_MOTION":15.27586134,"ECCENTRICITY":0.00014946,"INCLINATION":43.001,"RA_OF_ASC_NODE":233.7783,"ARG_OF_PERICENTER":268.3388,"MEAN_ANOMALY":91.7293,"EPHEMERIS_TYPE":0,"CLASSIFICATION_TYPE":"U","NORAD_CAT_ID":67339,"ELEMENT_SET_NO":999,"REV_AT_EPOCH":864,"BSTAR":0.001116091,"MEAN_MOTION_DOT":0.00030584,"MEAN_MOTION_DDOT":0}]
